[{"OBJECT_NAME":"OBJECT B","OBJECT_ID":"2024-205B","EPOCH":"2026-03-09T23:46:05.115936","MEAN_MOTION":15.28158697,"ECCENTRICITY":0.00105957,"INCLINATION":97.4192,"RA_OF_ASC_NODE":146.9311,"ARG_OF_PERICENTER":34.0947,"MEAN_ANOMALY":326.0972,"EPHEMERIS_TYPE":0,"CLASSIFICATION_TYPE":"U","NORAD_CAT_ID":61895,"ELEMENT_SET_NO":999,"REV_AT_EPOCH":7352,"BSTAR":0.00054154807,"MEAN_MOTION_DOT":0.00014827,"MEAN_MOTION_DDOT":0},{"OBJECT_NAME":"STARLINK-35860","OBJECT_ID":"2025-283D","EPOCH":"2026-03-09T04:50:27.318912","MEAN_MOTION":15.30206831,"ECCENTRICITY":0.0001027,"INCLINATION":53.1627,"RA_OF_ASC_NODE":26.1336,"ARG_OF_PERICENTER":104.7371,"MEAN_ANOMALY":255.3743,"EPHEMERIS_TYPE":0,"CLASSIFICATION_TYPE":"U","NORAD_CAT_ID":66881,"ELEMENT_SET_NO":999,"REV_AT_EPOCH":1577,"BSTAR":0.001057389,"MEAN_MOTION_DOT":0.00031095,"MEAN_MOTION_DDOT":0}]
